0 COSMOS 2251 DEB
1 36052U 93036AXP 13281.30226972  .00001969  00000-0  63823-3 0  4572
2 36052 074.0355 136.1129 0018062 224.5330 254.1605 14.39524808219392
0 COSMOS 2251 DEB
1 36052U 93036AXP 13282.27576394  .00002385  00000-0  77107-3 0  4589
2 36052 074.0354 134.3155 0018017 222.4948 259.0904 14.39537028219532
0 COSMOS 2251 DEB
1 36052U 93036AXP 13285.87745605  .00003004  00000-0  96873-3 0  4592
2 36052 074.0360 127.6670 0017941 215.0964 204.2142 14.39551221220053
0 COSMOS 2251 DEB
1 36052U 93036AXP 13287.98074998  .00004832  00000-0  15524-2 0  4601
2 36052 074.0353 123.7834 0017866 210.6866 304.3507 14.39565606220365
0 COSMOS 2251 DEB
1 36052U 93036AXP 13290.26796564  .00004231  00000-0  13600-2 0  4613
2 36052 074.0351 119.5598 0017780 205.8782 277.8002 14.39581852220681
0 COSMOS 2251 DEB
1 36052U 93036AXP 13292.82651855  .00004152  00000-0  13341-2 0  4625
2 36052 074.0354 114.8357 0017723 200.6194 217.4937 14.39600066221050
0 COSMOS 2251 DEB
1 36052U 93036AXP 13294.84295375  .00005725  00000-0  18356-2 0  4639
2 36052 074.0360 111.1121 0017612 196.5467 227.7093 14.39614756221349
